STARLINK-3904           
1 52464U 22049P   26068.20868909 -.00000164  00000+0  77575-5 0  9999
2 52464  53.2173  61.2803 0001203  88.8475 271.2655 15.08836543212174
LEMUR-2-SIERRINI        
1 60579U 24149DR  26068.80891719  .00014386  00000+0  92040-3 0  9991
2 60579  97.6873 151.1225 0006580 147.8458 212.3173 15.08682764 85461
